[{"OBJECT_NAME":"TEVEL2-5","OBJECT_ID":"2025-052E","EPOCH":"2026-03-09T23:11:54.246048","MEAN_MOTION":15.30817434,"ECCENTRICITY":0.00047002,"INCLINATION":97.4013,"RA_OF_ASC_NODE":325.3677,"ARG_OF_PERICENTER":95.3936,"MEAN_ANOMALY":264.7842,"EPHEMERIS_TYPE":0,"CLASSIFICATION_TYPE":"U","NORAD_CAT_ID":63214,"ELEMENT_SET_NO":999,"REV_AT_EPOCH":5491,"BSTAR":0.00071764727,"MEAN_MOTION_DOT":0.00021339,"MEAN_MOTION_DDOT":0},{"OBJECT_NAME":"STARLINK-36456","OBJECT_ID":"2026-003Z","EPOCH":"2026-03-09T11:49:39.908928","MEAN_MOTION":15.27597956,"ECCENTRICITY":9.028e-5,"INCLINATION":42.9995,"RA_OF_ASC_NODE":228.1823,"ARG_OF_PERICENTER":209.28,"MEAN_ANOMALY":150.8002,"EPHEMERIS_TYPE":0,"CLASSIFICATION_TYPE":"U","NORAD_CAT_ID":67357,"ELEMENT_SET_NO":999,"REV_AT_EPOCH":879,"BSTAR":0.00096112705,"MEAN_MOTION_DOT":0.00026295,"MEAN_MOTION_DDOT":0}]
