TEVEL2-5                
1 63214U 25052E   26068.96660006  .00021339  00000+0  71765-3 0  9991
2 63214  97.4013 325.3677 0004700  95.3936 264.7842 15.30817434 54919
STARLINK-36456          
1 67357U 26003Z   26068.49282302  .00026295  00000+0  96113-3 0  9997
2 67357  42.9995 228.1823 0000902 209.2800 150.8002 15.27597956  8792
